sat04555
1 04555U 66041F   20046.40034292  .00000369  00000-0  11499-3 0  9997
2 04555  90.1477  25.5658 0050091   5.8051 354.3720 14.38753683 90195
